NORAD_CAT_ID,OBJECT_NAME,OBJECT_TYPE,EPOCH,MEAN_MOTION,ECCENTRICITY,INCLINATION,RA_OF_ASC_NODE,ARG_OF_PERICENTER,MEAN_ANOMALY,BSTAR,MEAN_MOTION_DOT,MEAN_MOTION_DDOT,TLE_LINE0,TLE_LINE1,TLE_LINE2,SEMIMAJOR_AXIS,PERIOD,APOGEE,PERIGEE,DECAYED
54202.0,STARLINK-5205,PAYLOAD,2022-12-20 09:39:41,15.73238467,0.0003396,53.2136,239.8046,32.8042,327.3188,1.099e-05,9.21e-06,0.0,0 STARLINK-5205,1 54202U 22141AX  22354.40256801  .00000921  00000-0  10990-4 0  9990,2 54202  53.2136 239.8046 0003396  32.8042 327.3188 15.73238467  8665,6727.786,91.531,351.935,347.366,0.0
54202.0,STARLINK-5205,PAYLOAD,2022-12-21 02:25:59,15.73179611,0.0002565,53.2116,236.3498,11.0198,349.0878,-0.00011589,-0.00016842,0.0,0 STARLINK-5205,1 54202U 22141AX  22355.10138766 -.00016842  00000-0 -11589-3 0  9992,2 54202  53.2116 236.3498 0002565  11.0198 349.0878 15.73179611  8778,6727.953,91.534,351.5440000000001,348.093,0.0
54202.0,STARLINK-5205,PAYLOAD,2022-12-22 01:18:14,15.73184354,0.0002762,53.2136,231.6312,18.898,341.2142,4.7003e-05,5.976e-05,0.0,0 STARLINK-5205,1 54202U 22141AX  22356.05433517  .00005976  00000-0  47003-4 0  9994,2 54202  53.2136 231.6312 0002762  18.8980 341.2142 15.73184354  8921,6727.94,91.534,351.663,347.94699999999995,0.0
54202.0,STARLINK-5205,PAYLOAD,2022-12-22 16:33:02,15.73207817,0.0002676,53.2129,228.4883,16.0856,344.0249,0.00012419,0.0001685,0.0,0 STARLINK-5205,1 54202U 22141AX  22356.68961492  .00016850  00000-0  12419-3 0  9996,2 54202  53.2129 228.4883 0002676  16.0856 344.0249 15.73207817  9027,6727.873000000001,91.533,351.538,347.93800000000016,0.0
54202.0,STARLINK-5205,PAYLOAD,2022-12-22 21:07:29,15.73209357,0.0002634999999999,53.2123,227.546,12.3437,347.7647,0.00011127,0.0001503,0.0,0 STARLINK-5205,1 54202U 22141AX  22356.88019904  .00015030  00000-0  11127-3 0  9994,2 54202  53.2123 227.5460 0002635  12.3437 347.7647 15.73209357  8821,6727.868,91.533,351.506,347.961,0.0
54202.0,STARLINK-5205,PAYLOAD,2022-12-23 00:10:27,15.73190273,0.0002722,53.2114,226.9181,16.0334,344.0772,6.4459e-05,8.431e-05,0.0,0 STARLINK-5205,1 54202U 22141AX  22357.00725922  .00008431  00000-0  64459-4 0  9997,2 54202  53.2114 226.9181 0002722  16.0334 344.0772 15.73190273  9071,6727.9230000000025,91.534,351.619,347.957,0.0
54202.0,STARLINK-5205,PAYLOAD,2022-12-23 15:25:16,15.73188184,0.000271,53.2123,223.7729,20.3051,339.8077,-3.0289e-06,-1.047e-05,0.0,0 STARLINK-5205,1 54202U 22141AX  22357.64254724 -.00001047  00000-0 -30289-5 0  9997,2 54202  53.2123 223.7729 0002710  20.3051 339.8077 15.73188184  9174,6727.929,91.534,351.617,347.971,0.0
54202.0,STARLINK-5205,PAYLOAD,2022-12-24 02:05:36,15.73230113,0.0002384,53.212,221.5714,14.4467,345.6621,7.0354e-05,9.276e-05,0.0,0 STARLINK-5205,1 54202U 22141AX  22358.08722684  .00009276  00000-0  70354-4 0  9997,2 54202  53.2120 221.5714 0002384  14.4467 345.6621 15.73230113  9241,6727.809,91.531,351.278,348.07,0.0
54202.0,STARLINK-5205,PAYLOAD,2022-12-24 08:11:31,15.7324264,0.000269,53.2126,220.315,17.1814,342.9296,8.3719e-05,0.00011166,0.0,0 STARLINK-5205,1 54202U 22141AX  22358.34133132  .00011166  00000-0  83719-4 0  9990,2 54202  53.2126 220.3150 0002690  17.1814 342.9296 15.73242640  9059,6727.774,91.531,351.4480000000001,347.829,0.0
54202.0,STARLINK-5205,PAYLOAD,2022-12-24 21:54:49,15.73223562,0.0002877,53.2133,217.4831,9.926,350.1816,3.9695e-05,4.958e-05,0.0,0 STARLINK-5205,1 54202U 22141AX  22358.91307721  .00004958  00000-0  39695-4 0  9995,2 54202  53.2133 217.4831 0002877   9.9260 350.1816 15.73223562  9142,6727.828,91.532,351.629,347.75699999999995,0.0
54202.0,STARLINK-5205,PAYLOAD,2022-12-25 02:29:16,15.73209479,0.0002023,53.2137,216.5409,7.5722,352.5329,-2.0967e-05,-3.564e-05,0.0,0 STARLINK-5205,1 54202U 22141AX  22359.10366300 -.00003564  00000-0 -20967-4 0  9991,2 54202  53.2137 216.5409 0002023   7.5722 352.5329 15.73209479  9402,6727.868,91.533,351.094,348.372,0.0
54202.0,STARLINK-5205,PAYLOAD,2022-12-25 20:47:02,15.732084699999998,0.0002423,53.2134,212.7663,28.302,331.8131,-2.302300000000001e-05,-3.853e-05,0.0,0 STARLINK-5205,1 54202U 22141AX  22359.86599976 -.00003853  00000-0 -23023-4 0  9998,2 54202  53.2134 212.7663 0002423  28.3020 331.8131 15.73208470  9293,6727.871,91.533,351.366,348.106,0.0
54202.0,STARLINK-5205,PAYLOAD,2022-12-26 01:21:28,15.73219137,0.0002836,53.2147,211.8256,21.2314,338.8823,1.0745e-05,8.87e-06,0.0,0 STARLINK-5205,1 54202U 22141AX  22360.05657872  .00000887  00000-0  10745-4 0  9990,2 54202  53.2147 211.8256 0002836  21.2314 338.8823 15.73219137  9557,6727.840999999999,91.532,351.61400000000015,347.798,0.0
54202.0,STARLINK-5205,PAYLOAD,2022-12-26 16:36:01,15.7394236,0.0006354,53.2141,208.6803,307.3276,52.7165,0.0021443,0.00322473,0.0,0 STARLINK-5205,1 54202U 22141AX  22360.69167910  .00322473  00000-0  21443-2 0  9992,2 54202  53.2141 208.6803 0006354 307.3276  52.7165 15.73942360  9650,6725.78,91.49,351.918,343.371,0.0
54202.0,STARLINK-5205,PAYLOAD,2022-12-27 06:00:00,15.70494383,0.0005605,53.2166,205.9262,269.3945,8.0619,-0.01004,-0.01123987,0.0,0 STARLINK-5205,1 54202U 22141AX  22361.25001157 -.01123987  00000-0 -10040-1 0  9997,2 54202  53.2166 205.9262 0005605 269.3945   8.0619 15.70494383  9735,6735.62,91.691,361.26,353.71,0.0
54202.0,STARLINK-5205,PAYLOAD,2022-12-27 14:00:01,15.69669455,0.0004788,53.2169,204.2832,269.4421,93.1939,-0.010227,-0.01107249,0.0,0 STARLINK-5205,1 54202U 22141AX  22361.58334491 -.01107249  00000-0 -10227-1 0  9993,2 54202  53.2169 204.2832 0004788 269.4421  93.1939 15.69669455  1301,6737.98,91.739,363.071,356.619,0.0
54202.0,STARLINK-5205,PAYLOAD,2022-12-27 20:00:01,15.69085513,0.0002132,53.2169,203.0549,268.8962,66.9593,-0.010768,-0.0113297,0.0,0 STARLINK-5205,1 54202U 22141AX  22361.83334491 -.01132970  00000-0 -10768-1 0  9990,2 54202  53.2169 203.0549 0002132 268.8962  66.9593 15.69085513  1308,6739.651,91.773,362.953,360.079,0.0
54202.0,STARLINK-5205,PAYLOAD,2022-12-28 06:00:00,15.68071821,9.49e-05,53.217,201.006,40.6687,129.371,-0.011445,-0.01171157,0.0,0 STARLINK-5205,1 54202U 22141AX  22362.25001157 -.01171157  00000-0 -11445-1 0  9990,2 54202  53.2170 201.0060 0000949  40.6687 129.3710 15.68071821  9893,6742.556,91.833,365.061,363.781,0.0
54202.0,STARLINK-5205,PAYLOAD,2022-12-28 14:00:01,15.67246732,0.0001227,53.2172,199.3693,61.1047,191.1794,-0.011628,-0.01152275,0.0,0 STARLINK-5205,1 54202U 22141AX  22362.58334491 -.01152275  00000-0 -11628-1 0  9999,2 54202  53.2172 199.3693 0001227  61.1047 191.1794 15.67246732  1305,6744.922,91.881,367.615,365.959,0.0
54202.0,STARLINK-5205,PAYLOAD,2022-12-28 22:00:00,15.66424069,0.0001072,53.2172,197.7374,78.692,254.858,-0.011894,-0.01140841,0.0,0 STARLINK-5205,1 54202U 22141AX  22362.91667824 -.01140841  00000-0 -11894-1 0  9996,2 54202  53.2172 197.7374 0001072  78.6920 254.8580 15.66424069  1304,6747.283,91.929,369.872,368.425,0.0
54202.0,STARLINK-5205,PAYLOAD,2022-12-29 06:00:02,15.65613204,0.0001177999999999,53.2169,196.1039,53.9286,359.9712,-0.012332,-0.01144306,0.0,0 STARLINK-5205,1 54202U 22141AX  22363.25002315 -.01144306  00000-0 -12332-1 0  9990,2 54202  53.2169 196.1039 0001178  53.9286 359.9712 15.65613204 10055,6749.613,91.977,372.273,370.6830000000001,0.0
54202.0,STARLINK-5205,PAYLOAD,2022-12-29 14:00:01,15.64795533,0.0001411,53.217,194.4732,49.0944,84.0491,-0.012664,-0.01137837,0.0,0 STARLINK-5205,1 54202U 22141AX  22363.58334491 -.01137837  00000-0 -12664-1 0  9998,2 54202  53.2170 194.4732 0001411  49.0944  84.0491 15.64795533  1308,6751.964,92.025,374.782,372.876,0.0
54202.0,STARLINK-5205,PAYLOAD,2022-12-30 06:00:00,15.63172298,0.0001142,53.2172,191.2195,64.8852,223.937,-0.013599,-0.01144556,0.0,0 STARLINK-5205,1 54202U 22141AX  22364.25001157 -.01144556  00000-0 -13599-1 0  9997,2 54202  53.2172 191.2195 0001142  64.8852 223.9370 15.63172298 10218,6756.637,92.12,379.274,377.731,0.0
54202.0,STARLINK-5205,PAYLOAD,2022-12-30 14:00:01,15.62359397,0.0001203,53.2171,189.5951,48.0015,317.1934,-0.014036,-0.01144145,0.0,0 STARLINK-5205,1 54202U 22141AX  22364.58334491 -.01144145  00000-0 -14036-1 0  9994,2 54202  53.2171 189.5951 0001203  48.0015 317.1934 15.62359397  1308,6758.981,92.168,381.659,380.033,0.0
54202.0,STARLINK-5205,PAYLOAD,2022-12-31 06:00:00,15.60730887,0.0001448,53.2171,186.3531,50.9197,104.089,-0.014927,-0.01142149,0.0,0 STARLINK-5205,1 54202U 22141AX  22365.25001157 -.01142149  00000-0 -14927-1 0  9990,2 54202  53.2171 186.3531 0001448  50.9197 104.0890 15.60730887 10366,6763.682,92.264,386.526,384.567,0.0
54202.0,STARLINK-5205,PAYLOAD,2022-12-31 14:00:01,15.59916075,0.0001398,53.2171,184.7345,55.5748,172.8743,-0.015374,-0.01140089,0.0,0 STARLINK-5205,1 54202U 22141AX  22365.58334491 -.01140089  00000-0 -15374-1 0  9994,2 54202  53.2171 184.7345 0001398  55.5748 172.8743 15.59916075  1305,6766.0369999999975,92.313,388.848,386.956,0.0
54202.0,STARLINK-5205,PAYLOAD,2022-12-31 22:00:00,15.59098049,0.0001112,53.2171,183.1204,64.6641,236.2477,-0.015772,-0.01133983,0.0,0 STARLINK-5205,1 54202U 22141AX  22365.91667824 -.01133983  00000-0 -15772-1 0  9997,2 54202  53.2171 183.1204 0001112  64.6641 236.2477 15.59098049  1300,6768.403,92.361,391.021,389.516,0.0
54202.0,STARLINK-5205,PAYLOAD,2023-01-01 06:00:00,15.58285157,0.0001247,53.2172,181.5041,46.3464,326.0509,-0.016298,-0.01135883,0.0,0 STARLINK-5205,1 54202U 22141AX  23001.25001157 -.01135883  00000-0 -16298-1 0  9998,2 54202  53.2172 181.5041 0001247  46.3464 326.0509 15.58285157 10526,6770.757,92.409,393.466,391.778,0.0
54202.0,STARLINK-5205,PAYLOAD,2023-01-01 14:00:01,15.57479708,0.0001506999999999,53.2168,179.8919,43.8012,39.0983,-0.016978,-0.01146656,0.0,0 STARLINK-5205,1 54202U 22141AX  23001.58334491 -.01146656  00000-0 -16978-1 0  9999,2 54202  53.2168 179.8919 0001507  43.8012  39.0983 15.57479708  1304,6773.090999999999,92.457,395.977,393.935,0.0
